TYVAK-0130              
1 48606U 21041BF  26068.48452211  .00008857  00000+0  35198-3 0  9997
2 48606  52.9967 128.6030 0008953 215.1647 144.8760 15.26049141265157
STARLINK-31764          
1 59653U 24082Y   26068.22930562 -.00002381  00000+0 -77020-4 0  9990
2 59653  42.9998 142.2225 0000859 256.2359 103.8397 15.27582221104947
