[{"OBJECT_NAME":"TYVAK-0130","OBJECT_ID":"2021-041BF","EPOCH":"2026-03-09T11:37:42.710304","MEAN_MOTION":15.26049141,"ECCENTRICITY":0.0008953,"INCLINATION":52.9967,"RA_OF_ASC_NODE":128.603,"ARG_OF_PERICENTER":215.1647,"MEAN_ANOMALY":144.876,"EPHEMERIS_TYPE":0,"CLASSIFICATION_TYPE":"U","NORAD_CAT_ID":48606,"ELEMENT_SET_NO":999,"REV_AT_EPOCH":26515,"BSTAR":0.0003519806,"MEAN_MOTION_DOT":8.857e-5,"MEAN_MOTION_DDOT":0},{"OBJECT_NAME":"STARLINK-31764","OBJECT_ID":"2024-082Y","EPOCH":"2026-03-09T05:30:12.005568","MEAN_MOTION":15.27582221,"ECCENTRICITY":8.592e-5,"INCLINATION":42.9998,"RA_OF_ASC_NODE":142.2225,"ARG_OF_PERICENTER":256.2359,"MEAN_ANOMALY":103.8397,"EPHEMERIS_TYPE":0,"CLASSIFICATION_TYPE":"U","NORAD_CAT_ID":59653,"ELEMENT_SET_NO":999,"REV_AT_EPOCH":10494,"BSTAR":-7.7020434e-5,"MEAN_MOTION_DOT":-2.381e-5,"MEAN_MOTION_DDOT":0}]
